{
  "type": "FeatureCollection",
  "features": [
    {
      "type": "Feature",
      "properties": {
        "norad_id": 43823,
        "name": "GEO-KOMPSAT-2A",
        "group": "weather",
        "lat": 0.021258254508885403,
        "lon": -150.35003206089974,
        "alt_km": 35786.92516461456,
        "timestamp": "2025-12-17T23:38:06.507481+00:00",
        "meta_object_name": "GEO-KOMPSAT-2A",
        "meta_object_id": "2018-100A",
        "meta_epoch": "2025-12-16T07:07:06.206304",
        "meta_mean_motion": 1.00271835,
        "meta_eccentricity": 4.993e-05,
        "meta_inclination": 0.0508,
        "meta_ra_of_asc_node": 132.3973,
        "meta_arg_of_pericenter": 330.4458,
        "meta_mean_anomaly": 217.3998,
        "meta_ephemeris_type": 0,
        "meta_classification_type": "U",
        "meta_norad_cat_id": 43823,
        "meta_element_set_no": 999,
        "meta_rev_at_epoch": 2579,
        "meta_bstar": 0,
        "meta_mean_motion_dot": -3.2e-06,
        "meta_mean_motion_ddot": 0,
        "tle_line1": "1 43823U 18100A   25350.29659961 -.00000320  00000+0  00000+0 0  9996",
        "tle_line2": "2 43823   0.0508 132.3973 0000499 330.4458 217.3998  1.00271835 25791"
      },
      "geometry": {
        "type": "Point",
        "coordinates": [
          -150.35003206089974,
          0.021258254508885403
        ]
      }
    },
    {
      "type": "Feature",
      "properties": {
        "norad_id": 44387,
        "name": "METEOR-M2 2",
        "group": "weather",
        "lat": -71.49736906869553,
        "lon": 123.86863104642174,
        "alt_km": 818.6154660064567,
        "timestamp": "2025-12-17T23:38:06.507495+00:00",
        "meta_object_name": "METEOR-M2 2",
        "meta_object_id": "2019-038A",
        "meta_epoch": "2025-12-17T15:42:13.621248",
        "meta_mean_motion": 14.24293287,
        "meta_eccentricity": 0.00014437,
        "meta_inclination": 98.8968,
        "meta_ra_of_asc_node": 331.4434,
        "meta_arg_of_pericenter": 136.8036,
        "meta_mean_anomaly": 223.3256,
        "meta_ephemeris_type": 0,
        "meta_classification_type": "U",
        "meta_norad_cat_id": 44387,
        "meta_element_set_no": 999,
        "meta_rev_at_epoch": 33545,
        "meta_bstar": 4.6509628e-05,
        "meta_mean_motion_dot": 6.2e-07,
        "meta_mean_motion_ddot": 0,
        "tle_line1": "1 44387U 19038A   25351.65432432  .00000062  00000+0  46510-4 0  9999",
        "tle_line2": "2 44387  98.8968 331.4434 0001443 136.8036 223.3256 14.24293287335452"
      },
      "geometry": {
        "type": "Point",
        "coordinates": [
          123.86863104642174,
          -71.49736906869553
        ]
      }
    },
    {
      "type": "Feature",
      "properties": {
        "norad_id": 47719,
        "name": "ARKTIKA-M 1",
        "group": "weather",
        "lat": 33.32125519004535,
        "lon": -116.07145080015253,
        "alt_km": 16245.495322923813,
        "timestamp": "2025-12-17T23:38:06.507509+00:00",
        "meta_object_name": "ARKTIKA-M 1",
        "meta_object_id": "2021-016A",
        "meta_epoch": "2025-12-16T01:33:46.454400",
        "meta_mean_motion": 2.00630649,
        "meta_eccentricity": 0.72056757,
        "meta_inclination": 63.179,
        "meta_ra_of_asc_node": 83.5626,
        "meta_arg_of_pericenter": 269.1378,
        "meta_mean_anomaly": 15.5886,
        "meta_ephemeris_type": 0,
        "meta_classification_type": "U",
        "meta_norad_cat_id": 47719,
        "meta_element_set_no": 999,
        "meta_rev_at_epoch": 3511,
        "meta_bstar": 0,
        "meta_mean_motion_dot": -1.08e-06,
        "meta_mean_motion_ddot": 0,
        "tle_line1": "1 47719U 21016A   25350.06512100 -.00000108  00000+0  00000+0 0  9996",
        "tle_line2": "2 47719  63.1790  83.5626 7205675 269.1378  15.5886  2.00630649 35117"
      },
      "geometry": {
        "type": "Point",
        "coordinates": [
          -116.07145080015253,
          33.32125519004535
        ]
      }
    },
    {
      "type": "Feature",
      "properties": {
        "norad_id": 49008,
        "name": "FENGYUN 3E",
        "group": "weather",
        "lat": 49.46480723571576,
        "lon": -177.18361722222937,
        "alt_km": 821.3028653133961,
        "timestamp": "2025-12-17T23:38:06.507521+00:00",
        "meta_object_name": "FENGYUN 3E",
        "meta_object_id": "2021-062A",
        "meta_epoch": "2025-12-17T14:34:13.041696",
        "meta_mean_motion": 14.19880947,
        "meta_eccentricity": 6.338e-05,
        "meta_inclination": 98.7473,
        "meta_ra_of_asc_node": 352.0708,
        "meta_arg_of_pericenter": 231.2335,
        "meta_mean_anomaly": 128.8785,
        "meta_ephemeris_type": 0,
        "meta_classification_type": "U",
        "meta_norad_cat_id": 49008,
        "meta_element_set_no": 999,
        "meta_rev_at_epoch": 23081,
        "meta_bstar": 4.4848022e-05,
        "meta_mean_motion_dot": 5.1e-07,
        "meta_mean_motion_ddot": 0,
        "tle_line1": "1 49008U 21062A   25351.60709539  .00000051  00000+0  44848-4 0  9994",
        "tle_line2": "2 49008  98.7473 352.0708 0000633 231.2335 128.8785 14.19880947230811"
      },
      "geometry": {
        "type": "Point",
        "coordinates": [
          -177.18361722222937,
          49.46480723571576
        ]
      }
    },
    {
      "type": "Feature",
      "properties": {
        "norad_id": 51850,
        "name": "GOES 18",
        "group": "weather",
        "lat": 0.004351641453768228,
        "lon": -55.63144945661416,
        "alt_km": 35784.20298785141,
        "timestamp": "2025-12-17T23:38:06.507533+00:00",
        "meta_object_name": "GOES 18",
        "meta_object_id": "2022-021A",
        "meta_epoch": "2025-12-17T12:15:24.681312",
        "meta_mean_motion": 1.00272194,
        "meta_eccentricity": 4.602e-05,
        "meta_inclination": 0.0197,
        "meta_ra_of_asc_node": 166.5725,
        "meta_arg_of_pericenter": 165.1996,
        "meta_mean_anomaly": 161.4683,
        "meta_ephemeris_type": 0,
        "meta_classification_type": "U",
        "meta_norad_cat_id": 51850,
        "meta_element_set_no": 999,
        "meta_rev_at_epoch": 477,
        "meta_bstar": 0,
        "meta_mean_motion_dot": 1.21e-06,
        "meta_mean_motion_ddot": 0,
        "tle_line1": "1 51850U 22021A   25351.51070233  .00000121  00000+0  00000+0 0  9995",
        "tle_line2": "2 51850   0.0197 166.5725 0000460 165.1996 161.4683  1.00272194  4770"
      },
      "geometry": {
        "type": "Point",
        "coordinates": [
          -55.63144945661416,
          0.004351641453768228
        ]
      }
    },
    {
      "type": "Feature",
      "properties": {
        "norad_id": 54234,
        "name": "NOAA 21 (JPSS-2)",
        "group": "weather",
        "lat": 49.72333847537437,
        "lon": 118.695657435303,
        "alt_km": 822.6883577576264,
        "timestamp": "2025-12-17T23:38:06.507544+00:00",
        "meta_object_name": "NOAA 21 (JPSS-2)",
        "meta_object_id": "2022-150A",
        "meta_epoch": "2025-12-17T12:52:40.188000",
        "meta_mean_motion": 14.19525598,
        "meta_eccentricity": 0.00020185,
        "meta_inclination": 98.7467,
        "meta_ra_of_asc_node": 287.7851,
        "meta_arg_of_pericenter": 28.6993,
        "meta_mean_anomaly": 331.4294,
        "meta_ephemeris_type": 0,
        "meta_classification_type": "U",
        "meta_norad_cat_id": 54234,
        "meta_element_set_no": 999,
        "meta_rev_at_epoch": 16077,
        "meta_bstar": 4.4883876e-05,
        "meta_mean_motion_dot": 5.1e-07,
        "meta_mean_motion_ddot": 0,
        "tle_line1": "1 54234U 22150A   25351.53657625  .00000051  00000+0  44884-4 0  9990",
        "tle_line2": "2 54234  98.7467 287.7851 0002018  28.6993 331.4294 14.19525598160773"
      },
      "geometry": {
        "type": "Point",
        "coordinates": [
          118.695657435303,
          49.72333847537437
        ]
      }
    },
    {
      "type": "Feature",
      "properties": {
        "norad_id": 54743,
        "name": "METEOSAT-12 (MTG-I1)",
        "group": "weather",
        "lat": 0.6042568589163867,
        "lon": 81.0731978245168,
        "alt_km": 35792.83249545267,
        "timestamp": "2025-12-17T23:38:06.507555+00:00",
        "meta_object_name": "METEOSAT-12 (MTG-I1)",
        "meta_object_id": "2022-170C",
        "meta_epoch": "2025-12-17T08:11:15.525888",
        "meta_mean_motion": 1.00270121,
        "meta_eccentricity": 0.00015099,
        "meta_inclination": 0.6917,
        "meta_ra_of_asc_node": 24.3803,
        "meta_arg_of_pericenter": 239.2535,
        "meta_mean_anomaly": 305.1089,
        "meta_ephemeris_type": 0,
        "meta_classification_type": "U",
        "meta_norad_cat_id": 54743,
        "meta_element_set_no": 999,
        "meta_rev_at_epoch": 1115,
        "meta_bstar": 0,
        "meta_mean_motion_dot": 1.7e-07,
        "meta_mean_motion_ddot": 0,
        "tle_line1": "1 54743U 22170C   25351.34115192  .00000017  00000+0  00000+0 0  9993",
        "tle_line2": "2 54743   0.6917  24.3803 0001509 239.2535 305.1089  1.00270121 11150"
      },
      "geometry": {
        "type": "Point",
        "coordinates": [
          81.0731978245168,
          0.6042568589163867
        ]
      }
    }
  ]
}